HST                     
1 20580U 90037B   26177.92228016  .00007114  00000+0  22414-3 0  9995
2 20580  28.4734  14.0366 0001405 260.4690  99.5747 15.30856861790068
POLAR                   
1 23802U 96013A   26176.50959110  .00000140  00000+0  00000+0 0  9999
2 23802  79.8647 226.9545 6478686 208.7930  90.3879  1.29846072144975
SWAS                    
1 25560U 98071A   26177.49080764  .00002487  00000+0  16053-3 0  9992
2 25560  69.8944 203.5256 0008775 250.5098 109.5118 15.09667021498675
CXO                     
1 25867U 99040B   26179.95532601  .00000592  00000+0  00000+0 0  9990
2 25867  56.3077 116.3625 7815439 310.1470   0.3486  0.37796038 17366
XMM-NEWTON              
1 25989U 99066A   26179.31942051  .00000041  00000+0  00000+0 0  9996
2 25989  64.4273 282.8431 4670867  64.6865   0.1170  0.50127671 23061
TERRA                   
1 25994U 99068A   26177.95492160  .00000370  00000+0  84257-4 0  9999
2 25994  97.9451 227.1137 0002353 161.3935 299.0284 14.61110261411036
CLUSTER II-FM7 (SAMBA)  
1 26410U 00041A   26179.29571931  .00010019  00000+0  00000+0 0  9999
2 26410 149.8957  52.7269 9065028 270.0741 359.5894  0.44873944 20367
CLUSTER II-FM8 (TANGO)  
1 26464U 00045B   26175.19428720  .00005465  00000+0  00000+0 0  9993
2 26464 150.1276  53.1676 9064570 270.3044   2.6399  0.44426562 20346
ODIN                    
1 26702U 01007A   26177.54689141  .00222224  00000+0  12112-2 0  9998
2 26702  97.3804 219.1111 0006273 135.3308 224.8466 15.79292674390878
TIMED                   
1 26998U 01055B   26177.84314540  .00000921  00000+0  87177-4 0  9992
2 26998  74.0663 215.5762 0001608 322.7104  37.3969 14.95311064332261
CORIOLIS                
1 27640U 03001A   26177.92135343  .00000101  00000+0  68192-4 0  9997
2 27640  98.7127 184.6575 0013947 180.0393 180.0785 14.19947318215609
SORCE                   
1 27651U 03004A   26177.76942547  .00002335  00000+0  17759-3 0  9999
2 27651  39.9889 207.0055 0016326 123.2582 236.9779 15.03753763273341
MOST                    
1 27843U 03031D   26177.92603385  .00000075  00000+0  54517-4 0  9997
2 27843  98.7043 185.5160 0009078 219.0411 141.0111 14.21324447192097
SCISAT 1                
1 27858U 03036A   26177.94987730  .00000598  00000+0  81029-4 0  9997
2 27858  73.9290 151.9456 0008222 222.0726 137.9820 14.81457904232895
SWIFT                   
1 28485U 04047A   26177.91597531  .00054286  00000+0  43474-3 0  9994
2 28485  20.5520 109.8010 0001303  75.2194 284.8396 15.69240851188397
HINODE (SOLAR-B)        
1 29479U 06041A   26177.92819377  .00000695  00000+0  12781-3 0  9992
2 29479  98.0544 193.9372 0015977 256.0186 103.9243 14.68635358 56309
SHIJIAN-6 02A (SJ-6 02A)
1 29505U 06046A   26177.98585550  .00007679  00000+0  39130-3 0  9992
2 29505  97.6364 219.1255 0004681 103.7297 256.4457 15.17053135 73757
SHIJIAN-6 02B (SJ-6 02B)
1 29506U 06046B   26178.01008279  .00001313  00000+0  10631-3 0  9990
2 29506  97.7161 207.0082 0015252  32.9149 327.3022 15.01399532 72216
FGRST (GLAST)           
1 33053U 08029A   26177.59189692  .00002598  00000+0  90722-4 0  9992
2 33053  25.5805 139.1753 0008421  78.3295 281.8188 15.23982538997275
SDO                     
1 36395U 10005A   26177.24254086 -.00000095  00000+0  00000+0 0  9999
2 36395  34.6701  86.2043 0001578  47.1184 126.1758  1.00270715 60153
CRYOSAT 2               
1 36508U 10013A   26177.93708363  .00000114  00000+0  27507-4 0  9999
2 36508  92.0360 279.6716 0002130  94.5834 265.5616 14.51902204859495
X-SAT                   
1 37389U 11015C   26177.91385376  .00000337  00000+0  16090-3 0  9994
2 37389  98.3508 154.4738 0013289 319.1870  40.8314 14.25209707789066
GCOM-W1 (SHIZUKU)       
1 38337U 12025A   26177.85296390  .00000441  00000+0  10791-3 0  9998
2 38337  98.2022 118.2623 0001627  69.6245 354.4028 14.57132960750444
NUSTAR                  
1 38358U 12031A   26178.00003472  .00017626  00000+0  10288-2 0  9996
2 38358   6.0288 320.5391 0009229 255.9468   0.0749 15.08891992  1303
NEOSSAT                 
1 39089U 13009D   26177.96562066  .00000146  00000+0  65266-4 0  9994
2 39089  98.4180 357.7659 0010314 212.0047 148.0514 14.35829709698147
BRITE-AUSTRIA           
1 39091U 13009F   26177.95938208  .00000166  00000+0  70971-4 0  9992
2 39091  98.3998 357.1533 0009622 204.7667 155.3059 14.36545680698450
IRIS                    
1 39197U 13033A   26177.79459701  .00000978  00000+0  11810-3 0  9991
2 39197  97.9326  17.0415 0023038 288.8133  71.0584 14.85902525701806
HISAKI (SPRINT-A)       
1 39253U 13049A   26177.70337651  .00000105  00000+0  56976-4 0  9996
2 39253  29.7172 171.6282 0136853  94.0042 267.6185 13.55545495632714
CASSIOPE                
1 39265U 13055A   26177.93431099  .00048975 -33478-6  53096-3 0  9991
2 39265  80.9148  54.8784 0288920  29.6879 332.0400 15.26095701669158
STSAT-3                 
1 39422U 13066G   26177.96734890  .00003461  00000+0  26280-3 0  9999
2 39422  97.6213 147.6981 0010218  17.4997 342.6579 15.02809725685672
SWARM B                 
1 39451U 13067A   26177.95373043  .00003591  00000+0  12790-3 0  9995
2 39451  87.7440 339.3489 0003019  81.9208 278.2384 15.28609079684733
